[{"OBJECT_NAME":"HAIYANG-1C","OBJECT_ID":"2018-068A","EPOCH":"2026-03-09T23:11:36.870144","MEAN_MOTION":14.34145137,"ECCENTRICITY":0.00114449,"INCLINATION":98.527,"RA_OF_ASC_NODE":142.6779,"ARG_OF_PERICENTER":34.5915,"MEAN_ANOMALY":325.6013,"EPHEMERIS_TYPE":0,"CLASSIFICATION_TYPE":"U","NORAD_CAT_ID":43609,"ELEMENT_SET_NO":999,"REV_AT_EPOCH":39286,"BSTAR":4.0329797e-5,"MEAN_MOTION_DOT":6.9e-7,"MEAN_MOTION_DDOT":0},{"OBJECT_NAME":"CZ-4B DEB","OBJECT_ID":"2002-024H","EPOCH":"2026-03-09T22:22:50.809728","MEAN_MOTION":14.05056145,"ECCENTRICITY":0.01276217,"INCLINATION":99.0686,"RA_OF_ASC_NODE":120.3962,"ARG_OF_PERICENTER":273.5464,"MEAN_ANOMALY":85.1115,"EPHEMERIS_TYPE":0,"CLASSIFICATION_TYPE":"U","NORAD_CAT_ID":34223,"ELEMENT_SET_NO":999,"REV_AT_EPOCH":19740,"BSTAR":0.00045794059,"MEAN_MOTION_DOT":7.48e-6,"MEAN_MOTION_DDOT":0}]
